NORAD_CAT_ID,OBJECT_NAME,OBJECT_TYPE,EPOCH,MEAN_MOTION,ECCENTRICITY,INCLINATION,RA_OF_ASC_NODE,ARG_OF_PERICENTER,MEAN_ANOMALY,BSTAR,MEAN_MOTION_DOT,MEAN_MOTION_DDOT,TLE_LINE0,TLE_LINE1,TLE_LINE2,SEMIMAJOR_AXIS,PERIOD,APOGEE,PERIGEE,DECAYED
53439.0,STARLINK-4519,PAYLOAD,2022-12-17 16:54:21,15.08836691,0.000177,53.219,351.9097,48.6481,311.4663,-2.863e-05,-7.44e-06,0.0,0 STARLINK-4519,1 53439U 22097BD  22351.70441599 -.00000744  00000-0 -28630-4 0  9996,2 53439  53.2190 351.9097 0001770  48.6481 311.4663 15.08836691 20964,6917.891,95.438,540.98,538.531,0.0
53439.0,STARLINK-4519,PAYLOAD,2022-12-18 04:02:04,15.08826005,0.0002433,53.2191,349.82800000000015,355.8485,4.2486,-0.00015313,-2.724e-05,0.0,0 STARLINK-4519,1 53439U 22097BD  22352.16810744 -.00002724  00000-0 -15313-3 0  9992,2 53439  53.2191 349.8280 0002433 355.8485   4.2486 15.08826005 20541,6917.9230000000025,95.438,541.471,538.105,0.0
53439.0,STARLINK-4519,PAYLOAD,2022-12-18 08:48:11,15.08852267,0.000174,53.2191,348.9357,52.3721,307.7429,6.6774e-05,7.75e-06,0.0,0 STARLINK-4519,1 53439U 22097BD  22352.36680218  .00000775  00000-0  66774-4 0  9995,2 53439  53.2191 348.9357 0001740  52.3721 307.7429 15.08852267 21063,6917.843000000003,95.437,540.9119999999998,538.504,0.0
53439.0,STARLINK-4519,PAYLOAD,2022-12-18 16:45:09,15.08830898,0.0002012,53.2191,347.4489,56.8606,303.2579,-4.6164e-05,-1.023e-05,0.0,0 STARLINK-4519,1 53439U 22097BD  22352.69802162 -.00001023  00000-0 -46164-4 0  9995,2 53439  53.2191 347.4489 0002012  56.8606 303.2579 15.08830898 21116,6917.908,95.438,541.165,538.381,0.0
53439.0,STARLINK-4519,PAYLOAD,2022-12-19 03:52:51,15.0882392,0.0001855,53.2197,345.37,56.0692,304.0477,-8.0756e-05,-1.573e-05,0.0,0 STARLINK-4519,1 53439U 22097BD  22353.16171050 -.00001573  00000-0 -80756-4 0  9998,2 53439  53.2197 345.3700 0001855  56.0692 304.0477 15.08823920 20692,6917.93,95.439,541.078,538.511,0.0
53439.0,STARLINK-4519,PAYLOAD,2022-12-19 08:39:00,15.08831116,0.000181,53.2194,344.4772,56.948,303.1686,-6.7048e-05,-1.355e-05,0.0,0 STARLINK-4519,1 53439U 22097BD  22353.36042672 -.00001355  00000-0 -67048-4 0  9994,2 53439  53.2194 344.4772 0001810  56.9480 303.1686 15.08831116 20725,6917.908,95.438,541.025,538.52,0.0
53439.0,STARLINK-4519,PAYLOAD,2022-12-20 10:05:09,15.08850779,0.0001764,53.218,339.7182,46.6577,313.4562,5.9843e-05,6.65e-06,0.0,0 STARLINK-4519,1 53439U 22097BD  22354.42025210  .00000665  00000-0  59843-4 0  9996,2 53439  53.2180 339.7182 0001764  46.6577 313.4562 15.08850779 21378,6917.847,95.437,540.933,538.492,0.0
53439.0,STARLINK-4519,PAYLOAD,2022-12-20 16:26:43,15.088336800000002,0.0001462,53.2191,338.5278,60.044,300.0697,-0.00013463,-2.43e-05,0.0,0 STARLINK-4519,1 53439U 22097BD  22354.68522756 -.00002430  00000-0 -13463-3 0  9992,2 53439  53.2191 338.5278 0001462  60.0440 300.0697 15.08833680 20920,6917.9,95.438,540.776,538.753,0.0
53439.0,STARLINK-4519,PAYLOAD,2022-12-21 08:20:35,15.08828491,0.0001716,53.2181,335.5545,73.8808,286.2373,1.7927e-05,-3e-08,0.0,0 STARLINK-4519,1 53439U 22097BD  22355.34763376 -.00000003  00000-0  17927-4 0  9994,2 53439  53.2181 335.5545 0001716  73.8808 286.2373 15.08828491 21511,6917.916,95.438,540.9680000000002,538.5930000000002,0.0
53439.0,STARLINK-4519,PAYLOAD,2022-12-21 16:17:30,15.08839667,0.0001709,53.2182,334.0689,71.8808,288.237,8.384700000000001e-05,1.047e-05,0.0,0 STARLINK-4519,1 53439U 22097BD  22355.67882559  .00001047  00000-0  83847-4 0  9997,2 53439  53.2182 334.0689 0001709  71.8808 288.2370 15.08839667 21072,6917.880999999999,95.438,540.929,538.564,0.0
53439.0,STARLINK-4519,PAYLOAD,2022-12-22 05:00:34,15.08857427,0.0001422,53.2177,331.6875,78.1052,282.0099,6.561699999999999e-05,7.57e-06,0.0,0 STARLINK-4519,1 53439U 22097BD  22356.20873191  .00000757  00000-0  65617-4 0  9991,2 53439  53.2177 331.6875 0001422  78.1052 282.0099 15.08857427 21152,6917.8269999999975,95.436,540.6759999999998,538.7080000000002,0.0
53439.0,STARLINK-4519,PAYLOAD,2022-12-22 09:46:43,15.08854091,0.000143,53.2179,330.7958,77.3569,282.7583,4.2624e-05,3.91e-06,0.0,0 STARLINK-4519,1 53439U 22097BD  22356.40745292  .00000391  00000-0  42624-4 0  9990,2 53439  53.2179 330.7958 0001430  77.3569 282.7583 15.08854091 21675,6917.837,95.437,540.692,538.7130000000002,0.0
53439.0,STARLINK-4519,PAYLOAD,2022-12-22 16:08:16,15.088487,0.0001505,53.2187,329.6075,66.6251,293.4899,-3.3281e-05,-8.18e-06,0.0,0 STARLINK-4519,1 53439U 22097BD  22356.67241724 -.00000818  00000-0 -33281-4 0  9995,2 53439  53.2187 329.6075 0001505  66.6251 293.4899 15.08848700 21223,6917.854,95.437,540.76,538.678,0.0
53439.0,STARLINK-4519,PAYLOAD,2022-12-23 04:51:22,15.088294199999998,0.0001743,53.2162,327.2285,79.9635,280.1554,3.0397e-05,1.96e-06,0.0,0 STARLINK-4519,1 53439U 22097BD  22357.20234909  .00000196  00000-0  30397-4 0  9994,2 53439  53.2162 327.2285 0001743  79.9635 280.1554 15.08829420 21308,6917.913000000001,95.438,540.984,538.572,0.0
53439.0,STARLINK-4519,PAYLOAD,2022-12-23 09:37:32,15.08833828,0.0001669,53.2185,326.3357,76.0354,284.0823,-2.9525e-05,-7.58e-06,0.0,0 STARLINK-4519,1 53439U 22097BD  22357.40106989 -.00000758  00000-0 -29525-4 0  9999,2 53439  53.2185 326.3357 0001669  76.0354 284.0823 15.08833828 21822,6917.899,95.438,540.919,538.61,0.0
53439.0,STARLINK-4519,PAYLOAD,2022-12-24 04:42:09,15.08843561,0.0001389,53.2181,322.769,75.2708,284.8438,-6.1382e-05,-1.265e-05,0.0,0 STARLINK-4519,1 53439U 22097BD  22358.19594428 -.00001265  00000-0 -61382-4 0  9996,2 53439  53.2181 322.7690 0001389  75.2708 284.8438 15.08843561 21455,6917.87,95.437,540.695,538.774,0.0
53439.0,STARLINK-4519,PAYLOAD,2022-12-24 07:52:55,15.08849534,0.0001512,53.2178,322.1736,75.8443,284.2717,-9.7295e-05,-1.837e-05,0.0,0 STARLINK-4519,1 53439U 22097BD  22358.32842204 -.00001837  00000-0 -97295-4 0  9996,2 53439  53.2178 322.1736 0001512  75.8443 284.2717 15.08849534 21962,6917.851,95.437,540.762,538.67,0.0
53439.0,STARLINK-4519,PAYLOAD,2022-12-24 14:14:27,15.088478599999998,0.0001453,53.2182,320.9847,76.2146,283.9008,4.1408e-06,-2.22e-06,0.0,0 STARLINK-4519,1 53439U 22097BD  22358.59337823 -.00000222  00000-0  41408-5 0  9993,2 53439  53.2182 320.9847 0001453  76.2146 283.9008 15.08847860 22000,6917.856,95.437,540.727,538.716,0.0
53439.0,STARLINK-4519,PAYLOAD,2022-12-25 04:32:56,15.08828593,0.0001386999999999,53.2181,318.3078,76.9076,283.2071,5.4327e-05,5.77e-06,0.0,0 STARLINK-4519,1 53439U 22097BD  22359.18954788  .00000577  00000-0  54327-4 0  9999,2 53439  53.2181 318.3078 0001387  76.9076 283.2071 15.08828593 21601,6917.915,95.438,540.74,538.821,0.0
53439.0,STARLINK-4519,PAYLOAD,2022-12-25 07:43:43,15.08829886,0.000147,53.218,317.7132,75.0327,285.0827,-7.1661e-06,-4.02e-06,0.0,0 STARLINK-4519,1 53439U 22097BD  22359.32202990 -.00000402  00000-0 -71661-5 0  9996,2 53439  53.2180 317.7132 0001470  75.0327 285.0827 15.08829886 22118,6917.911,95.438,540.793,538.759,0.0
53439.0,STARLINK-4519,PAYLOAD,2022-12-26 07:34:30,15.08835464,0.0001425,53.2178,313.2526,75.0163,285.0986,-1.3004e-05,-4.95e-06,0.0,0 STARLINK-4519,1 53439U 22097BD  22360.31563080 -.00000495  00000-0 -13004-4 0  9995,2 53439  53.2178 313.2526 0001425  75.0163 285.0986 15.08835464 22262,6917.894,95.438,540.745,538.773,0.0
53439.0,STARLINK-4519,PAYLOAD,2022-12-26 20:17:34,15.08850216,0.0001026,53.2172,310.8726,82.5581,277.5528,1.5433e-05,-4.2e-07,0.0,0 STARLINK-4519,1 53439U 22097BD  22360.84553758 -.00000042  00000-0  15433-4 0  9999,2 53439  53.2172 310.8726 0001026  82.5581 277.5528 15.08850216 21859,6917.849,95.437,540.424,539.004,0.0
53439.0,STARLINK-4519,PAYLOAD,2022-12-27 05:49:53,15.08841309,0.0001366,53.2173,309.0884,72.2778,287.8364,8.3605e-05,1.043e-05,0.0,0 STARLINK-4519,1 53439U 22097BD  22361.24298068  .00001043  00000-0  83605-4 0  9991,2 53439  53.2173 309.0884 0001366  72.2778 287.8364 15.08841309 22403,6917.876,95.437,540.686,538.7959999999998,0.0
53439.0,STARLINK-4519,PAYLOAD,2022-12-27 13:46:48,15.08848552,0.0001264999999999,53.2178,307.6023,73.6347,286.4784,0.00013778,1.906e-05,0.0,0 STARLINK-4519,1 53439U 22097BD  22361.57417158  .00001906  00000-0  13778-3 0  9991,2 53439  53.2178 307.6023 0001265  73.6347 286.4784 15.08848552 22455,6917.854,95.437,540.594,538.844,0.0
53439.0,STARLINK-4519,PAYLOAD,2022-12-28 00:54:30,15.08852525,0.0001355,53.2177,305.5199,72.6225,287.4916,0.00011027,1.468e-05,0.0,0 STARLINK-4519,1 53439U 22097BD  22362.03784744  .00001468  00000-0  11027-3 0  9999,2 53439  53.2177 305.5199 0001355  72.6225 287.4916 15.08852525 22036,6917.842,95.437,540.644,538.77,0.0
53439.0,STARLINK-4519,PAYLOAD,2022-12-29 05:31:28,15.08821276,0.0001358,53.2178,300.1694,67.4231,292.6905,-0.00017184,-3.02e-05,0.0,0 STARLINK-4519,1 53439U 22097BD  22363.23019634 -.00003020  00000-0 -17184-3 0  9999,2 53439  53.2178 300.1694 0001358  67.4231 292.6905 15.08821276 22215,6917.938,95.439,540.742,538.863,0.0
53439.0,STARLINK-4519,PAYLOAD,2022-12-30 02:11:30,15.0882114,0.0001419999999999,53.2176,296.3032,78.4686,281.6466,-0.00018873,-3.289e-05,0.0,0 STARLINK-4519,1 53439U 22097BD  22364.09132474 -.00003289  00000-0 -18873-3 0  9995,2 53439  53.2176 296.3032 0001420  78.4686 281.6466 15.08821140 22839,6917.938,95.439,540.785,538.821,0.0
53439.0,STARLINK-4519,PAYLOAD,2022-12-31 02:02:14,15.08842721,0.0001441999999999,53.2179,291.8445,71.6494,288.4655,0.00026724,3.968e-05,0.0,0 STARLINK-4519,1 53439U 22097BD  22365.08489500  .00003968  00000-0  26724-3 0  9996,2 53439  53.2179 291.8445 0001442  71.6494 288.4655 15.08842721 22491,6917.871999999999,95.437,540.735,538.74,0.0
53439.0,STARLINK-4519,PAYLOAD,2022-12-31 19:31:29,15.08843647,0.000139,53.2181,288.5724,72.62899999999998,287.4854,0.00026585,3.946e-05,0.0,0 STARLINK-4519,1 53439U 22097BD  22365.81353175  .00003946  00000-0  26585-3 0  9996,2 53439  53.2181 288.5724 0001390  72.6290 287.4854 15.08843647 23099,6917.869000000002,95.437,540.696,538.773,0.0
